{
"type": "FeatureCollection",
"name": "auckland-service-areas1",
"crs": { "type": "name", "properties": { "name": "urn:ogc:def:crs:OGC:1.3:CRS84" } },
"features": [
{ "type": "Feature", "properties": { "name": "North Shore", "colour": "#337fcb", "suburbs": "Hibiscus Coast, Albany and Takapuna", "label_lat": -36.685, "label_lng": 174.7 }, "geometry": { "type": "MultiPolygon", "coordinates": [ [ [ [ 174.700836181640625, -36.825416564941399 ], [ 174.679550170898438, -36.791641235351555 ], [ 174.705413818359375, -36.78505706787108 ], [ 174.672561645507812, -36.786300659179688 ], [ 174.673782348632812, -36.805023193359375 ], [ 174.653394926904269, -36.80223579353823 ], [ 174.649486475693436, -36.800616286032756 ], [ 174.64409286007961, -36.79838763941958 ], [ 174.638706292707667, -36.796172337739975 ], [ 174.633325736130985, -36.793974121292436 ], [ 174.627950152902969, -36.791796730375495 ], [ 174.622578505576939, -36.789643905287619 ], [ 174.617209756706444, -36.787519386327347 ], [ 174.611842868844661, -36.785426913793167 ], [ 174.606476804545139, -36.783370227983575 ], [ 174.601110526361111, -36.781353069197074 ], [ 174.595742996846155, -36.779379177732196 ], [ 174.590373178553449, -36.7774522938874 ], [ 174.585872772459112, -36.775880891233079 ], [ 174.585341034368952, -36.775695224733489 ], [ 174.585580905186333, -36.775778980206042 ], [ 174.58500003403654, -36.775576157961233 ], [ 174.587463512082934, -36.7680106076104 ], [ 174.589082660159704, -36.760948510417101 ], [ 174.590447780724446, -36.753893326945949 ], [ 174.591569753127771, -36.746844666792498 ], [ 174.592459456720434, -36.739802139552289 ], [ 174.593127770853243, -36.732765354820884 ], [ 174.593585574876954, -36.725733922193854 ], [ 174.593843748142206, -36.718707451266717 ], [ 174.593913169999752, -36.711685551635036 ], [ 174.593804719800431, -36.704667832894366 ], [ 174.593529276894884, -36.697653904640262 ], [ 174.593097720633892, -36.690643376468287 ], [ 174.59252093036821, -36.683635857973975 ], [ 174.591809785448504, -36.676630958752881 ], [ 174.590975165225586, -36.669628288400567 ], [ 174.590027949050182, -36.662627456512588 ], [ 174.588979016272987, -36.655628072684472 ], [ 174.587839246244783, -36.648629746511794 ], [ 174.58661951831624, -36.641632087590096 ], [ 174.585330711838196, -36.634634705514927 ], [ 174.583983706161348, -36.627637209881847 ], [ 174.582589380636449, -36.62063921028642 ], [ 174.581158614614196, -36.613640316324179 ], [ 174.579702287445343, -36.606640137590681 ], [ 174.578231278480644, -36.599638283681486 ], [ 174.576756452790676, -36.592634364016817 ], [ 174.575287607242814, -36.585627974902501 ], [ 174.573832748429197, -36.57861869066501 ], [ 174.572399712062662, -36.571606083532934 ], [ 174.570996333856129, -36.564589725734834 ], [ 174.569630449522577, -36.557569189499297 ], [ 174.56830989477487, -36.550544047054906 ], [ 174.567042505325958, -36.543513870630235 ], [ 174.565836116888789, -36.53647823245386 ], [ 174.564698565176201, -36.529436704754374 ], [ 174.563637685901199, -36.522388859760341 ], [ 174.562661314776619, -36.515334269700347 ], [ 174.561777287515469, -36.50827250680296 ], [ 174.560993439830554, -36.50120314329677 ], [ 174.560317607434911, -36.494125751410351 ], [ 174.559991607989019, -36.490000645539304 ], [ 174.711021177668414, -36.478382986333195 ], [ 174.724563598632812, -36.518310546875007 ], [ 174.707504272460938, -36.512939453124979 ], [ 174.71875, -36.52752685546875 ], [ 174.705825805664062, -36.530441284179688 ], [ 174.678756713867188, -36.52085876464843 ], [ 174.720382690429716, -36.543365478515618 ], [ 174.682022094726562, -36.540863037109375 ], [ 174.714614868164062, -36.553329467773445 ], [ 174.696197509765653, -36.56585693359375 ], [ 174.703826904296875, -36.596664428710938 ], [ 174.67706298828125, -36.598327636718736 ], [ 174.756698608398438, -36.628753662109382 ], [ 174.82086181640625, -36.595443725585938 ], [ 174.843780517578125, -36.604141235351562 ], [ 174.83502197265625, -36.622940063476562 ], [ 174.811660766601562, -36.609588623046868 ], [ 174.802505493164062, -36.631278991699226 ], [ 174.789993286132812, -36.620445251464837 ], [ 174.74249267578125, -36.65046691894532 ], [ 174.712142944335938, -36.622528076171889 ], [ 174.730438232421875, -36.651695251464844 ], [ 174.720413208007812, -36.670837402343757 ], [ 174.751251220703125, -36.665863037109375 ], [ 174.756256103515625, -36.73588562011718 ], [ 174.780846927171638, -36.775103220708338 ], [ 174.815353393554688, -36.830055236816399 ], [ 174.773284912109375, -36.830474853515632 ], [ 174.796310424804688, -36.820861816406243 ], [ 174.769226074218778, -36.821304321289062 ], [ 174.781280517578125, -36.805023193359375 ], [ 174.768325805664062, -36.795417785644524 ], [ 174.752471923828125, -36.82630920410157 ], [ 174.74249267578125, -36.817054748535156 ], [ 174.700836181640625, -36.825416564941399 ] ] ], [ [ [ 174.765576220831719, -36.841471614781632 ], [ 174.776843421867369, -36.843104059064544 ], [ 174.771209455591645, -36.842380730922507 ], [ 174.765576220831719, -36.841471614781632 ] ] ] ] } },
{ "type": "Feature", "properties": { "name": "West Auckland", "colour": "#8054bd", "suburbs": "Henderson, Titirangi and Glen Eden", "label_lat": -36.86, "label_lng": 174.515 }, "geometry": { "type": "Polygon", "coordinates": [ [ [ 174.595742996846155, -36.779379177732196 ], [ 174.601110526361111, -36.781353069197074 ], [ 174.606476804545139, -36.783370227983575 ], [ 174.611842868844661, -36.785426913793167 ], [ 174.617209756706444, -36.787519386327347 ], [ 174.621228334274377, -36.789109616088943 ], [ 174.623224436281987, -36.901416051152317 ], [ 174.623067311304851, -36.900779143649601 ], [ 174.623850357324358, -36.903953227706054 ], [ 174.624651016900373, -36.907124181012968 ], [ 174.625464563544682, -36.910292103341924 ], [ 174.626286270769299, -36.913457094464505 ], [ 174.627111412086151, -36.916619254152344 ], [ 174.62793526100711, -36.919778682177018 ], [ 174.628753091044132, -36.922935478310109 ], [ 174.629560175709031, -36.926089742323228 ], [ 174.630351788513877, -36.929241573987973 ], [ 174.631123202970457, -36.93239107307592 ], [ 174.631869692590698, -36.935538339358686 ], [ 174.632586530886613, -36.938683472607863 ], [ 174.633268991370045, -36.941826572595041 ], [ 174.633912347552837, -36.944967739091823 ], [ 174.634511872947058, -36.948107071869785 ], [ 174.635062841064553, -36.951244670700532 ], [ 174.635560525417191, -36.954380635355676 ], [ 174.6360001995169, -36.957515065606799 ], [ 174.636377136875637, -36.960648061225484 ], [ 174.636686611005302, -36.96377972198335 ], [ 174.636923895417851, -36.966910147651987 ], [ 174.637084263625127, -36.970039438002978 ], [ 174.637162989139028, -36.97316769280792 ], [ 174.637158157950466, -36.975144318301552 ], [ 174.634979248046875, -36.979637145996094 ], [ 174.615454633790705, -36.957061028608308 ], [ 174.613311767578125, -36.954582214355469 ], [ 174.613722804856195, -36.988306131357376 ], [ 174.614116325362033, -37.020522186144966 ], [ 174.6141357421875, -37.022109985351555 ], [ 174.610870545540763, -37.020728497799055 ], [ 174.570831298828125, -37.003776550292969 ], [ 174.517501831054688, -37.049583435058594 ], [ 174.488784790039062, -37.045837402343743 ], [ 174.42205810546875, -36.81500244140625 ], [ 174.351110192426461, -36.715154020655064 ], [ 174.383313596296063, -36.627326555556166 ], [ 174.398330688476562, -36.622894287109375 ], [ 174.393783569335938, -36.637496948242195 ], [ 174.416671752929688, -36.632110595703111 ], [ 174.422439575195312, -36.64964294433593 ], [ 174.430801391601562, -36.635444641113281 ], [ 174.44830322265625, -36.647109985351562 ], [ 174.4337158203125, -36.625030517578118 ], [ 174.448699951171875, -36.596694946289062 ], [ 174.4112548828125, -36.587524414062507 ], [ 174.4495849609375, -36.574165344238274 ], [ 174.421661376953125, -36.57127380371093 ], [ 174.429168701171875, -36.561248779296868 ], [ 174.439580452875674, -36.561586412255068 ], [ 174.455810546875028, -36.562110900878906 ], [ 174.450439453125, -36.535026550292955 ], [ 174.42877197265625, -36.529998779296875 ], [ 174.436947834815015, -36.499465551168079 ], [ 174.559991607989019, -36.490000645539304 ], [ 174.560317607434911, -36.494125751410351 ], [ 174.560993439830554, -36.50120314329677 ], [ 174.561777287515469, -36.50827250680296 ], [ 174.562661314776619, -36.515334269700347 ], [ 174.563637685901199, -36.522388859760341 ], [ 174.564698565176201, -36.529436704754374 ], [ 174.565836116888789, -36.53647823245386 ], [ 174.567042505325958, -36.543513870630235 ], [ 174.56830989477487, -36.550544047054906 ], [ 174.569630449522577, -36.557569189499297 ], [ 174.570996333856129, -36.564589725734834 ], [ 174.572399712062662, -36.571606083532934 ], [ 174.573832748429197, -36.57861869066501 ], [ 174.575287607242814, -36.585627974902501 ], [ 174.576756452790676, -36.592634364016817 ], [ 174.578231278480644, -36.599638283681486 ], [ 174.579702287445343, -36.606640137590681 ], [ 174.581158614614196, -36.613640316324179 ], [ 174.582589380636449, -36.62063921028642 ], [ 174.583983706161348, -36.627637209881847 ], [ 174.585330711838196, -36.634634705514927 ], [ 174.58661951831624, -36.641632087590096 ], [ 174.587839246244783, -36.648629746511794 ], [ 174.588979016272987, -36.655628072684472 ], [ 174.590027949050182, -36.662627456512588 ], [ 174.590975165225586, -36.669628288400567 ], [ 174.591809785448504, -36.676630958752881 ], [ 174.59252093036821, -36.683635857973975 ], [ 174.593097720633892, -36.690643376468287 ], [ 174.593529276894884, -36.697653904640262 ], [ 174.593804719800431, -36.704667832894366 ], [ 174.593913169999752, -36.711685551635036 ], [ 174.593843748142206, -36.718707451266717 ], [ 174.593585574876954, -36.725733922193854 ], [ 174.593127770853243, -36.732765354820884 ], [ 174.592459456720434, -36.739802139552289 ], [ 174.591569753127771, -36.746844666792498 ], [ 174.590447780724446, -36.753893326945949 ], [ 174.589082660159704, -36.760948510417101 ], [ 174.587463512082934, -36.7680106076104 ], [ 174.58500003403654, -36.775576157961233 ], [ 174.586102157110105, -36.775960985260568 ], [ 174.590373178553449, -36.7774522938874 ], [ 174.595742996846155, -36.779379177732196 ] ] ] } },
{ "type": "Feature", "properties": { "name": "Auckland Central", "colour": "#57a65b", "suburbs": "CBD, Ponsonby and Grey Lynn", "label_lat": -36.91, "label_lng": 174.755 }, "geometry": { "type": "Polygon", "coordinates": [ [ [ 174.860855102539062, -37.020446777343743 ], [ 174.84503173828125, -37.027893066406257 ], [ 174.806885782155945, -36.989010804253631 ], [ 174.802520751953125, -36.98455810546875 ], [ 174.802995629887675, -36.992972756051813 ], [ 174.804168701171875, -37.01374816894532 ], [ 174.778015926883739, -37.018400943001581 ], [ 174.775863647460938, -37.018783569335938 ], [ 174.7850341796875, -37.009643554687507 ], [ 174.745025634765625, -36.997116088867188 ], [ 174.7762451171875, -36.961692810058601 ], [ 174.758331298828125, -36.939605712890625 ], [ 174.792495727539062, -36.937110900878899 ], [ 174.798355102539062, -36.951278686523445 ], [ 174.818328857421903, -36.941253662109389 ], [ 174.820022583007812, -36.952087402343757 ], [ 174.832061767578125, -36.940002441406243 ], [ 174.7774658203125, -36.92378234863282 ], [ 174.733337402343778, -36.938804626464837 ], [ 174.713363647460938, -36.926277160644524 ], [ 174.684173583984375, -36.933776855468764 ], [ 174.65167236328125, -36.965415954589851 ], [ 174.649139404296875, -36.950439453125 ], [ 174.634979248046875, -36.979637145996094 ], [ 174.637158157950466, -36.975144318301552 ], [ 174.637162989139028, -36.97316769280792 ], [ 174.637084263625127, -36.970039438002978 ], [ 174.636923895417851, -36.966910147651987 ], [ 174.636686611005302, -36.96377972198335 ], [ 174.636377136875637, -36.960648061225484 ], [ 174.6360001995169, -36.957515065606799 ], [ 174.635560525417191, -36.954380635355676 ], [ 174.635062841064553, -36.951244670700532 ], [ 174.634511872947058, -36.948107071869785 ], [ 174.633912347552837, -36.944967739091823 ], [ 174.633268991370045, -36.941826572595041 ], [ 174.632586530886613, -36.938683472607863 ], [ 174.631869692590698, -36.935538339358686 ], [ 174.631123202970457, -36.93239107307592 ], [ 174.630351788513877, -36.929241573987973 ], [ 174.629560175709031, -36.926089742323228 ], [ 174.628753091044132, -36.922935478310109 ], [ 174.62793526100711, -36.919778682177018 ], [ 174.627111412086151, -36.916619254152344 ], [ 174.626286270769299, -36.913457094464505 ], [ 174.625464563544682, -36.910292103341924 ], [ 174.624651016900373, -36.907124181012968 ], [ 174.623850357324358, -36.903953227706054 ], [ 174.623224436281987, -36.901416051152317 ], [ 174.621228334274377, -36.789109616088943 ], [ 174.622578505576939, -36.789643905287619 ], [ 174.627950152902969, -36.791796730375495 ], [ 174.633325736130985, -36.793974121292436 ], [ 174.638706292707667, -36.796172337739975 ], [ 174.64409286007961, -36.79838763941958 ], [ 174.649486475693436, -36.800616286032756 ], [ 174.653394926904269, -36.80223579353823 ], [ 174.6524658203125, -36.802108764648445 ], [ 174.63543701171875, -36.824195861816406 ], [ 174.66546630859375, -36.833389282226555 ], [ 174.657882690429688, -36.880828857421875 ], [ 174.677078247070312, -36.89422607421875 ], [ 174.66668701171875, -36.859611511230462 ], [ 174.696670532226562, -36.88624572753907 ], [ 174.704605102539062, -36.850860595703125 ], [ 174.741110633839469, -36.835651210081046 ], [ 174.743077130409404, -36.836229288927136 ], [ 174.748694172376418, -36.837755547714679 ], [ 174.754317252551118, -36.839146422242855 ], [ 174.759945044260547, -36.8403893115768 ], [ 174.765576220831719, -36.841471614781632 ], [ 174.771209455591645, -36.842380730922507 ], [ 174.776640735115649, -36.842396897667882 ], [ 174.782476792985847, -36.843628998272884 ], [ 174.787535805714981, -36.843911034676822 ], [ 174.792526245117188, -36.864578247070312 ], [ 174.819198608398438, -36.844581604003899 ], [ 174.858801870087689, -36.843899652104362 ], [ 174.858923716543728, -36.846199094188457 ], [ 174.859168838535709, -36.8492526023417 ], [ 174.859493188902093, -36.85231210855774 ], [ 174.859892337241263, -36.855377177946195 ], [ 174.860361853151602, -36.858447375616677 ], [ 174.860897306231692, -36.861522266678854 ], [ 174.861494266079973, -36.864601416242358 ], [ 174.862148302294827, -36.867684389416823 ], [ 174.862854984474666, -36.870770751311866 ], [ 174.863609882218128, -36.873860067037157 ], [ 174.864408565123483, -36.87695190170232 ], [ 174.865246602789256, -36.88004582041696 ], [ 174.866119564813943, -36.883141388290774 ], [ 174.867023020796012, -36.886238170433359 ], [ 174.867952540333761, -36.889335731954347 ], [ 174.8689036930258, -36.892433637963393 ], [ 174.869872048470569, -36.895531453570136 ], [ 174.870853176266451, -36.898628743884196 ], [ 174.87110537946802, -36.899417958891291 ], [ 174.87203360317406, -36.90168281429824 ], [ 174.872791754974116, -36.904682076144823 ], [ 174.87283602730551, -36.904820009072843 ], [ 174.873828889745539, -36.907913114166696 ], [ 174.874816802930582, -36.911003954406425 ], [ 174.875795336459049, -36.914092094901669 ], [ 174.87676005992941, -36.917177100762046 ], [ 174.877706542940075, -36.920258537097219 ], [ 174.878630355089541, -36.923335969016797 ], [ 174.879527065976276, -36.926408961630443 ], [ 174.880392245198692, -36.929477080047775 ], [ 174.881221462355228, -36.932539889378432 ], [ 174.882010287044437, -36.935596954732063 ], [ 174.882754288864703, -36.938647841218298 ], [ 174.883449037414437, -36.941692113946758 ], [ 174.884090102292191, -36.944729338027102 ], [ 174.88467305309635, -36.947759078568957 ], [ 174.885193459425409, -36.950780900681963 ], [ 174.885646890877808, -36.953794369475759 ], [ 174.886028917051959, -36.956799050059963 ], [ 174.886335107546358, -36.959794507544231 ], [ 174.886561031959531, -36.962780307038209 ], [ 174.886702259889773, -36.965756013651507 ], [ 174.886754360935697, -36.968721192493774 ], [ 174.886712904695628, -36.971675408674649 ], [ 174.886573460768147, -36.974618227303765 ], [ 174.88633159875161, -36.977549213490768 ], [ 174.885982888244513, -36.980467932345277 ], [ 174.885522898845295, -36.98337394897694 ], [ 174.884947200152425, -36.986266828495388 ], [ 174.884251361764314, -36.989146136010277 ], [ 174.883430953279515, -36.992011436631216 ], [ 174.882481544296382, -36.994862295467868 ], [ 174.881398704413414, -36.997698277629837 ], [ 174.880178003229048, -37.000518948226791 ], [ 174.87881501034181, -37.003323872368355 ], [ 174.877305295350055, -37.006112615164156 ], [ 174.875644427852251, -37.008884741723847 ], [ 174.873827977446894, -37.011639817157047 ], [ 174.871851513732452, -37.014377406573416 ], [ 174.869710606307365, -37.017097075082575 ], [ 174.867400824770016, -37.019798387794154 ], [ 174.864917738718987, -37.022480909817816 ], [ 174.862256917752632, -37.025144206263164 ], [ 174.860975278631997, -37.025597854581896 ], [ 174.860855102539062, -37.020446777343743 ] ] ] } },
{ "type": "Feature", "properties": { "name": "Manukau", "colour": "#f28a2f", "suburbs": "Manukau, Papakura and Botany", "label_lat": -37.0, "label_lng": 174.985 }, "geometry": { "type": "MultiPolygon", "coordinates": [ [ [ [ 174.85418701171875, -37.057945251464837 ], [ 174.87750244140625, -37.081306457519531 ], [ 174.932052612304688, -37.05583190917968 ], [ 174.91082763671875, -37.045440673828118 ], [ 174.874969482421875, -37.056251525878892 ], [ 174.892913818359375, -37.043365478515618 ], [ 174.876663208007812, -37.03961181640625 ], [ 174.86163330078125, -37.053802490234375 ], [ 174.860975278631997, -37.025597854581896 ], [ 174.862256917752632, -37.025144206263164 ], [ 174.864917738718987, -37.022480909817816 ], [ 174.867400824770016, -37.019798387794154 ], [ 174.869710606307365, -37.017097075082575 ], [ 174.871851513732452, -37.014377406573416 ], [ 174.873827977446894, -37.011639817157047 ], [ 174.875644427852251, -37.008884741723847 ], [ 174.877305295350055, -37.006112615164156 ], [ 174.87881501034181, -37.003323872368355 ], [ 174.880178003229048, -37.000518948226791 ], [ 174.881398704413414, -36.997698277629837 ], [ 174.882481544296382, -36.994862295467868 ], [ 174.883430953279515, -36.992011436631216 ], [ 174.884251361764314, -36.989146136010277 ], [ 174.884947200152425, -36.986266828495388 ], [ 174.885522898845295, -36.98337394897694 ], [ 174.885982888244513, -36.980467932345277 ], [ 174.88633159875161, -36.977549213490768 ], [ 174.886573460768147, -36.974618227303765 ], [ 174.886712904695628, -36.971675408674649 ], [ 174.886754360935697, -36.968721192493774 ], [ 174.886702259889773, -36.965756013651507 ], [ 174.886561031959531, -36.962780307038209 ], [ 174.886335107546358, -36.959794507544231 ], [ 174.886028917051959, -36.956799050059963 ], [ 174.885646890877808, -36.953794369475759 ], [ 174.885193459425409, -36.950780900681963 ], [ 174.88467305309635, -36.947759078568957 ], [ 174.884090102292191, -36.944729338027102 ], [ 174.883449037414437, -36.941692113946758 ], [ 174.882754288864703, -36.938647841218298 ], [ 174.882010287044437, -36.935596954732063 ], [ 174.881221462355228, -36.932539889378432 ], [ 174.880392245198692, -36.929477080047775 ], [ 174.879527065976276, -36.926408961630443 ], [ 174.878630355089541, -36.923335969016797 ], [ 174.877706542940075, -36.920258537097219 ], [ 174.87676005992941, -36.917177100762046 ], [ 174.875795336459049, -36.914092094901669 ], [ 174.874816802930582, -36.911003954406425 ], [ 174.873828889745539, -36.907913114166696 ], [ 174.87283602730551, -36.904820009072843 ], [ 174.872791754974116, -36.904682076144816 ], [ 174.896255493164062, -36.893417358398438 ], [ 174.903366088867188, -36.847084045410156 ], [ 174.925224598929049, -36.8682358553963 ], [ 174.952911376953125, -36.895004272460938 ], [ 174.960922241210938, -36.929580688476562 ], [ 174.975021362304688, -36.907112121582024 ], [ 174.998779296875, -36.920059204101555 ], [ 174.98583984375, -36.880447387695305 ], [ 175.039215087890625, -36.877082824707017 ], [ 175.06744384765625, -36.90374755859375 ], [ 175.100448608398438, -36.902526855468743 ], [ 175.07794189453125, -36.917495727539055 ], [ 175.078338623046903, -36.958778381347649 ], [ 175.095840454101562, -36.941253662109375 ], [ 175.111414202787103, -36.950050290245187 ], [ 175.08, -37.06 ], [ 175.021609940001554, -37.176780119996906 ], [ 175.020112628416825, -37.176405013308717 ], [ 175.01612526150825, -37.17536771616075 ], [ 175.012148929857688, -37.174294480541064 ], [ 175.008184217123699, -37.17318513112609 ], [ 175.004231706964845, -37.172039492592234 ], [ 175.000291983039745, -37.17085738961589 ], [ 174.996365629006903, -37.169638646873487 ], [ 174.992453228524965, -37.168383089041427 ], [ 174.988555365252523, -37.167090540796124 ], [ 174.984672622848109, -37.165760826813994 ], [ 174.980805584970369, -37.164393771771437 ], [ 174.976954835277837, -37.162989200344875 ], [ 174.973120957429103, -37.161546937210716 ], [ 174.969304535082756, -37.160066807045368 ], [ 174.965506151897415, -37.158548634525246 ], [ 174.961726391531585, -37.156992244326759 ], [ 174.95796583764394, -37.15539746112632 ], [ 174.954225073893014, -37.153764109600338 ], [ 174.950504683937339, -37.152092014425214 ], [ 174.946805251435649, -37.150381000277399 ], [ 174.943127360046361, -37.148630891833257 ], [ 174.939471593428152, -37.146841513769218 ], [ 174.93583853523964, -37.14501269076171 ], [ 174.9322287691393, -37.143144247487115 ], [ 174.928642878785752, -37.141236008621846 ], [ 174.925081447837584, -37.139287798842332 ], [ 174.921545059953445, -37.13729944282499 ], [ 174.91803429879181, -37.135270765246204 ], [ 174.914549748011297, -37.133201590782399 ], [ 174.911091991270609, -37.131091744109995 ], [ 174.907661612228196, -37.1289410499054 ], [ 174.90425919454259, -37.126749332845009 ], [ 174.900885321872522, -37.124516417605243 ], [ 174.897540577876526, -37.122242128862524 ], [ 174.894225546213136, -37.11992629129324 ], [ 174.890940810540968, -37.117568729573826 ], [ 174.887686954518614, -37.115169268380683 ], [ 174.884464561804691, -37.112727732390226 ], [ 174.881274216057676, -37.110243946278857 ], [ 174.878116500936272, -37.107717734722996 ], [ 174.874992000098985, -37.105148922399053 ], [ 174.871901297204431, -37.102537333983435 ], [ 174.868844975911117, -37.099882794152535 ], [ 174.865823619877744, -37.097185127582819 ], [ 174.862837812762848, -37.094444158950637 ], [ 174.859888138225045, -37.091659712932454 ], [ 174.856975179922813, -37.088831614204622 ], [ 174.854099521514854, -37.085959687443619 ], [ 174.851261746659674, -37.083043757325797 ], [ 174.84846243901589, -37.080083648527591 ], [ 174.845702182242064, -37.077079185725431 ], [ 174.842981559996758, -37.074030193595689 ], [ 174.840377293492452, -37.071024374052676 ], [ 174.85418701171875, -37.057945251464837 ] ] ], [ [ [ 174.893753051757812, -36.87249755859375 ], [ 174.87110537946802, -36.899417958891291 ], [ 174.870853176266451, -36.898628743884196 ], [ 174.869872048470569, -36.895531453570136 ], [ 174.8689036930258, -36.892433637963393 ], [ 174.867952540333761, -36.889335731954347 ], [ 174.867023020796012, -36.886238170433359 ], [ 174.866119564813943, -36.883141388290774 ], [ 174.865246602789256, -36.88004582041696 ], [ 174.864408565123483, -36.87695190170232 ], [ 174.863609882218128, -36.873860067037157 ], [ 174.862854984474666, -36.870770751311866 ], [ 174.862148302294827, -36.867684389416823 ], [ 174.861494266079973, -36.864601416242358 ], [ 174.860897306231692, -36.861522266678854 ], [ 174.860361853151602, -36.858447375616677 ], [ 174.859892337241263, -36.855377177946195 ], [ 174.859493188902093, -36.85231210855774 ], [ 174.859168838535709, -36.8492526023417 ], [ 174.858923716543728, -36.846199094188457 ], [ 174.858801870087689, -36.843899652104362 ], [ 174.86749267578125, -36.84375 ], [ 174.893753051757812, -36.87249755859375 ] ] ] ] } },
{ "type": "Feature", "properties": { "name": "South Auckland", "colour": "#2ca9a4", "suburbs": "Manurewa, Papatoetoe and Pukekohe", "label_lat": -37.19, "label_lng": 174.76 }, "geometry": { "type": "Polygon", "coordinates": [ [ [ 174.67041015625, -37.108413696289055 ], [ 174.652145385742188, -37.121688842773438 ], [ 174.674606323242188, -37.129165649414048 ], [ 174.659576416015653, -37.14585876464843 ], [ 174.6925048828125, -37.14794921875 ], [ 174.677520751953153, -37.162078857421875 ], [ 174.7020263671875, -37.153335571289055 ], [ 174.688720703125, -37.189193725585945 ], [ 174.704635620117188, -37.185836791992173 ], [ 174.692108154296875, -37.202529907226555 ], [ 174.706192016601562, -37.197494506835938 ], [ 174.705001831054688, -37.219612121582038 ], [ 174.730438232421875, -37.190002441406257 ], [ 174.7054443359375, -37.159194946289062 ], [ 174.732086181640625, -37.154998779296875 ], [ 174.6925048828125, -37.137939453125007 ], [ 174.740020751953125, -37.129608154296868 ], [ 174.781692504882812, -37.089553833007805 ], [ 174.795394897460938, -37.093360900878899 ], [ 174.7821044921875, -37.105026245117195 ], [ 174.79168701171875, -37.117111206054688 ], [ 174.819785255863877, -37.090527001120392 ], [ 174.840377293492452, -37.071024374052676 ], [ 174.842981559996758, -37.074030193595689 ], [ 174.845702182242064, -37.077079185725431 ], [ 174.84846243901589, -37.080083648527591 ], [ 174.851261746659674, -37.083043757325797 ], [ 174.854099521514854, -37.085959687443619 ], [ 174.856975179922813, -37.088831614204622 ], [ 174.859888138225045, -37.091659712932454 ], [ 174.862837812762848, -37.094444158950637 ], [ 174.865823619877744, -37.097185127582819 ], [ 174.868844975911117, -37.099882794152535 ], [ 174.871901297204431, -37.102537333983435 ], [ 174.874992000098985, -37.105148922399053 ], [ 174.878116500936272, -37.107717734722996 ], [ 174.881274216057676, -37.110243946278857 ], [ 174.884464561804691, -37.112727732390226 ], [ 174.887686954518614, -37.115169268380683 ], [ 174.890940810540968, -37.117568729573826 ], [ 174.894225546213136, -37.11992629129324 ], [ 174.897540577876526, -37.122242128862524 ], [ 174.900885321872522, -37.124516417605243 ], [ 174.90425919454259, -37.126749332845009 ], [ 174.907661612228196, -37.1289410499054 ], [ 174.911091991270609, -37.131091744109995 ], [ 174.914549748011297, -37.133201590782399 ], [ 174.91803429879181, -37.135270765246204 ], [ 174.921545059953445, -37.13729944282499 ], [ 174.925081447837584, -37.139287798842332 ], [ 174.928642878785752, -37.141236008621846 ], [ 174.9322287691393, -37.143144247487115 ], [ 174.93583853523964, -37.14501269076171 ], [ 174.939471593428152, -37.146841513769218 ], [ 174.943127360046361, -37.148630891833257 ], [ 174.946805251435649, -37.150381000277399 ], [ 174.950504683937339, -37.152092014425214 ], [ 174.954225073893014, -37.153764109600338 ], [ 174.95796583764394, -37.15539746112632 ], [ 174.961726391531585, -37.156992244326759 ], [ 174.965506151897415, -37.158548634525246 ], [ 174.969304535082756, -37.160066807045368 ], [ 174.973120957429103, -37.161546937210716 ], [ 174.976954835277837, -37.162989200344875 ], [ 174.980805584970369, -37.164393771771437 ], [ 174.984672622848109, -37.165760826813994 ], [ 174.988555365252523, -37.167090540796124 ], [ 174.992453228524965, -37.168383089041427 ], [ 174.996365629006903, -37.169638646873487 ], [ 175.000291983039745, -37.17085738961589 ], [ 175.004231706964845, -37.172039492592234 ], [ 175.008184217123699, -37.17318513112609 ], [ 175.012148929857688, -37.174294480541064 ], [ 175.01612526150825, -37.17536771616075 ], [ 175.020112628416825, -37.176405013308717 ], [ 175.021609940001554, -37.176780119996906 ], [ 175.08, -37.06 ], [ 175.02, -37.18 ], [ 174.957703589589215, -37.206730216694957 ], [ 174.88, -37.24 ], [ 174.79, -37.34 ], [ 174.682844733763375, -37.34 ], [ 174.53875732421875, -37.055862426757812 ], [ 174.542870011676143, -37.053961066881961 ], [ 174.566696166992188, -37.042945861816399 ], [ 174.578862375384318, -37.043161468048211 ], [ 174.659255981445312, -37.044586181640625 ], [ 174.668746948242188, -37.070861816406243 ], [ 174.64288330078125, -37.087524414062486 ], [ 174.67041015625, -37.108413696289055 ] ] ] } }
]
}
