{"type":"FeatureCollection","name":"Mobile Mech Auckland service areas","boundary_note":"Approximate Mobile Mech service areas for website navigation; not official council boundaries.","features":[{"type":"Feature","properties":{"name":"North Shore","colour":"#337fcb","suburbs":"Hibiscus Coast, Albany and Takapuna","label_lat":-36.685,"label_lng":174.7},"geometry":{"type":"MultiPolygon","coordinates":[[[[174.70083618164062,-36.8254165649414],[174.67955017089844,-36.791641235351555],[174.70541381835938,-36.78505706787108],[174.6725616455078,-36.78630065917969],[174.6737823486328,-36.805023193359375],[174.65339492690427,-36.80223579353823],[174.64948647569344,-36.800616286032756],[174.6440928600796,-36.79838763941958],[174.63870629270767,-36.796172337739975],[174.63332573613098,-36.793974121292436],[174.62795015290297,-36.791796730375495],[174.62257850557694,-36.78964390528762],[174.61720975670644,-36.78751938632735],[174.61184286884466,-36.78542691379317],[174.60647680454514,-36.783370227983575],[174.6011105263611,-36.781353069197074],[174.59574299684616,-36.779379177732196],[174.59037317855345,-36.7774522938874],[174.5858727724591,-36.77588089123308],[174.58534103436895,-36.77569522473349],[174.58558090518633,-36.77577898020604],[174.58500003403654,-36.77557615796123],[174.58746351208293,-36.7680106076104],[174.5890826601597,-36.7609485104171],[174.59044778072445,-36.75389332694595],[174.59156975312777,-36.7468446667925],[174.59245945672043,-36.73980213955229],[174.59312777085324,-36.732765354820884],[174.59358557487695,-36.725733922193854],[174.5938437481422,-36.71870745126672],[174.59391316999975,-36.711685551635036],[174.59380471980043,-36.704667832894366],[174.59352927689488,-36.69765390464026],[174.5930977206339,-36.69064337646829],[174.5925209303682,-36.683635857973975],[174.5918097854485,-36.67663095875288],[174.5909751652256,-36.66962828840057],[174.59002794905018,-36.66262745651259],[174.588979016273,-36.65562807268447],[174.58783924624478,-36.648629746511794],[174.58661951831624,-36.6416320875901],[174.5853307118382,-36.63463470551493],[174.58398370616135,-36.62763720988185],[174.58258938063645,-36.62063921028642],[174.5811586146142,-36.61364031632418],[174.57970228744534,-36.60664013759068],[174.57823127848064,-36.599638283681486],[174.57675645279068,-36.59263436401682],[174.5752876072428,-36.5856279749025],[174.5738327484292,-36.57861869066501],[174.57239971206266,-36.571606083532934],[174.57099633385613,-36.564589725734834],[174.56963044952258,-36.5575691894993],[174.56830989477487,-36.550544047054906],[174.56704250532596,-36.543513870630235],[174.5658361168888,-36.53647823245386],[174.5646985651762,-36.529436704754374],[174.5636376859012,-36.52238885976034],[174.56266131477662,-36.51533426970035],[174.56177728751547,-36.50827250680296],[174.56099343983055,-36.50120314329677],[174.5603176074349,-36.49412575141035],[174.55999160798902,-36.490000645539304],[174.7110211776684,-36.478382986333195],[174.7245635986328,-36.51831054687501],[174.70750427246094,-36.51293945312498],[174.71875,-36.52752685546875],[174.70582580566406,-36.53044128417969],[174.6787567138672,-36.52085876464843],[174.72038269042972,-36.54336547851562],[174.68202209472656,-36.540863037109375],[174.71461486816406,-36.553329467773445],[174.69619750976565,-36.56585693359375],[174.70382690429688,-36.59666442871094],[174.67706298828125,-36.598327636718736],[174.75669860839844,-36.62875366210938],[174.82086181640625,-36.59544372558594],[174.84378051757812,-36.60414123535156],[174.83502197265625,-36.62294006347656],[174.81166076660156,-36.60958862304687],[174.80250549316406,-36.631278991699226],[174.7899932861328,-36.62044525146484],[174.74249267578125,-36.65046691894532],[174.71214294433594,-36.62252807617189],[174.73043823242188,-36.651695251464844],[174.7204132080078,-36.67083740234376],[174.75125122070312,-36.665863037109375],[174.75625610351562,-36.73588562011718],[174.78084692717164,-36.77510322070834],[174.8153533935547,-36.8300552368164],[174.77328491210938,-36.83047485351563],[174.7963104248047,-36.82086181640624],[174.76922607421878,-36.82130432128906],[174.78128051757812,-36.805023193359375],[174.76832580566406,-36.795417785644524],[174.75247192382812,-36.82630920410157],[174.74249267578125,-36.817054748535156],[174.70083618164062,-36.8254165649414]]],[[[174.78753580571498,-36.84391103467682],[174.78247679298585,-36.843628998272884],[174.77684342186737,-36.843104059064544],[174.77120945559165,-36.84238073092251],[174.76557622083172,-36.84147161478163],[174.75994504426055,-36.8403893115768],[174.75431725255112,-36.839146422242855],[174.74869417237642,-36.83775554771468],[174.7430771304094,-36.836229288927136],[174.74111063383947,-36.835651210081046],[174.74166870117188,-36.83541870117187],[174.78669738769534,-36.84043884277343],[174.78753580571498,-36.84391103467682]]]]}},{"type":"Feature","properties":{"name":"West Auckland","colour":"#8054bd","suburbs":"Henderson, Titirangi and Glen Eden","label_lat":-36.86,"label_lng":174.515},"geometry":{"type":"Polygon","coordinates":[[[174.59574299684616,-36.779379177732196],[174.6011105263611,-36.781353069197074],[174.60647680454514,-36.783370227983575],[174.61184286884466,-36.78542691379317],[174.61720975670644,-36.78751938632735],[174.62122833427438,-36.78910961608894],[174.623224436282,-36.90141605115232],[174.62306731130485,-36.9007791436496],[174.62385035732436,-36.903953227706054],[174.62465101690037,-36.90712418101297],[174.62546456354468,-36.910292103341924],[174.6262862707693,-36.913457094464505],[174.62711141208615,-36.916619254152344],[174.6279352610071,-36.91977868217702],[174.62875309104413,-36.92293547831011],[174.62956017570903,-36.92608974232323],[174.63035178851388,-36.92924157398797],[174.63112320297046,-36.93239107307592],[174.6318696925907,-36.935538339358686],[174.6325865308866,-36.93868347260786],[174.63326899137004,-36.94182657259504],[174.63391234755284,-36.94496773909182],[174.63451187294706,-36.948107071869785],[174.63506284106455,-36.95124467070053],[174.6355605254172,-36.954380635355676],[174.6360001995169,-36.9575150656068],[174.63637713687564,-36.960648061225484],[174.6366866110053,-36.96377972198335],[174.63692389541785,-36.96691014765199],[174.63708426362513,-36.97003943800298],[174.63716298913903,-36.97316769280792],[174.63715815795047,-36.97514431830155],[174.63497924804688,-36.979637145996094],[174.6154546337907,-36.95706102860831],[174.61331176757812,-36.95458221435547],[174.6137228048562,-36.988306131357376],[174.61411632536203,-37.020522186144966],[174.6141357421875,-37.022109985351555],[174.61087054554076,-37.020728497799055],[174.57083129882812,-37.00377655029297],[174.5175018310547,-37.049583435058594],[174.48878479003906,-37.04583740234374],[174.42205810546875,-36.81500244140625],[174.35111019242646,-36.71515402065506],[174.38331359629606,-36.62732655555617],[174.39833068847656,-36.622894287109375],[174.39378356933594,-36.637496948242195],[174.4166717529297,-36.63211059570311],[174.4224395751953,-36.64964294433593],[174.43080139160156,-36.63544464111328],[174.44830322265625,-36.64710998535156],[174.4337158203125,-36.62503051757812],[174.44869995117188,-36.59669494628906],[174.4112548828125,-36.58752441406251],[174.4495849609375,-36.574165344238274],[174.42166137695312,-36.57127380371093],[174.42916870117188,-36.56124877929687],[174.43958045287567,-36.56158641225507],[174.45581054687503,-36.562110900878906],[174.450439453125,-36.535026550292955],[174.42877197265625,-36.529998779296875],[174.43694783481502,-36.49946555116808],[174.55999160798902,-36.490000645539304],[174.5603176074349,-36.49412575141035],[174.56099343983055,-36.50120314329677],[174.56177728751547,-36.50827250680296],[174.56266131477662,-36.51533426970035],[174.5636376859012,-36.52238885976034],[174.5646985651762,-36.529436704754374],[174.5658361168888,-36.53647823245386],[174.56704250532596,-36.543513870630235],[174.56830989477487,-36.550544047054906],[174.56963044952258,-36.5575691894993],[174.57099633385613,-36.564589725734834],[174.57239971206266,-36.571606083532934],[174.5738327484292,-36.57861869066501],[174.5752876072428,-36.5856279749025],[174.57675645279068,-36.59263436401682],[174.57823127848064,-36.599638283681486],[174.57970228744534,-36.60664013759068],[174.5811586146142,-36.61364031632418],[174.58258938063645,-36.62063921028642],[174.58398370616135,-36.62763720988185],[174.5853307118382,-36.63463470551493],[174.58661951831624,-36.6416320875901],[174.58783924624478,-36.648629746511794],[174.588979016273,-36.65562807268447],[174.59002794905018,-36.66262745651259],[174.5909751652256,-36.66962828840057],[174.5918097854485,-36.67663095875288],[174.5925209303682,-36.683635857973975],[174.5930977206339,-36.69064337646829],[174.59352927689488,-36.69765390464026],[174.59380471980043,-36.704667832894366],[174.59391316999975,-36.711685551635036],[174.5938437481422,-36.71870745126672],[174.59358557487695,-36.725733922193854],[174.59312777085324,-36.732765354820884],[174.59245945672043,-36.73980213955229],[174.59156975312777,-36.7468446667925],[174.59044778072445,-36.75389332694595],[174.5890826601597,-36.7609485104171],[174.58746351208293,-36.7680106076104],[174.58500003403654,-36.77557615796123],[174.5861021571101,-36.77596098526057],[174.59037317855345,-36.7774522938874],[174.59574299684616,-36.779379177732196]]]}},{"type":"Feature","properties":{"name":"Auckland Central","colour":"#57a65b","suburbs":"CBD, Ponsonby and Grey Lynn","label_lat":-36.91,"label_lng":174.755},"geometry":{"type":"Polygon","coordinates":[[[174.86085510253906,-37.02044677734374],[174.84503173828125,-37.02789306640626],[174.80688578215594,-36.98901080425363],[174.80252075195312,-36.98455810546875],[174.80299562988768,-36.99297275605181],[174.80416870117188,-37.01374816894532],[174.77801592688374,-37.01840094300158],[174.77586364746094,-37.01878356933594],[174.7850341796875,-37.00964355468751],[174.74502563476562,-36.99711608886719],[174.7762451171875,-36.9616928100586],[174.75833129882812,-36.939605712890625],[174.79249572753906,-36.9371109008789],[174.79835510253906,-36.951278686523445],[174.8183288574219,-36.94125366210939],[174.8200225830078,-36.95208740234376],[174.83206176757812,-36.94000244140624],[174.7774658203125,-36.92378234863282],[174.73333740234378,-36.93880462646484],[174.71336364746094,-36.926277160644524],[174.68417358398438,-36.933776855468764],[174.65167236328125,-36.96541595458985],[174.64913940429688,-36.950439453125],[174.63497924804688,-36.979637145996094],[174.63715815795047,-36.97514431830155],[174.63716298913903,-36.97316769280792],[174.63708426362513,-36.97003943800298],[174.63692389541785,-36.96691014765199],[174.6366866110053,-36.96377972198335],[174.63637713687564,-36.960648061225484],[174.6360001995169,-36.9575150656068],[174.6355605254172,-36.954380635355676],[174.63506284106455,-36.95124467070053],[174.63451187294706,-36.948107071869785],[174.63391234755284,-36.94496773909182],[174.63326899137004,-36.94182657259504],[174.6325865308866,-36.93868347260786],[174.6318696925907,-36.935538339358686],[174.63112320297046,-36.93239107307592],[174.63035178851388,-36.92924157398797],[174.62956017570903,-36.92608974232323],[174.62875309104413,-36.92293547831011],[174.6279352610071,-36.91977868217702],[174.62711141208615,-36.916619254152344],[174.6262862707693,-36.913457094464505],[174.62546456354468,-36.910292103341924],[174.62465101690037,-36.90712418101297],[174.62385035732436,-36.903953227706054],[174.623224436282,-36.90141605115232],[174.62122833427438,-36.78910961608894],[174.62257850557694,-36.78964390528762],[174.62795015290297,-36.791796730375495],[174.63332573613098,-36.793974121292436],[174.63870629270767,-36.796172337739975],[174.6440928600796,-36.79838763941958],[174.64948647569344,-36.800616286032756],[174.65339492690427,-36.80223579353823],[174.6524658203125,-36.802108764648445],[174.63543701171875,-36.824195861816406],[174.66546630859375,-36.833389282226555],[174.6578826904297,-36.880828857421875],[174.6770782470703,-36.89422607421875],[174.66668701171875,-36.85961151123046],[174.69667053222656,-36.88624572753907],[174.70460510253906,-36.850860595703125],[174.74111063383947,-36.835651210081046],[174.7430771304094,-36.836229288927136],[174.74869417237642,-36.83775554771468],[174.75431725255112,-36.839146422242855],[174.75994504426055,-36.8403893115768],[174.76557622083172,-36.84147161478163],[174.77120945559165,-36.84238073092251],[174.77684342186737,-36.843104059064544],[174.78247679298585,-36.843628998272884],[174.78753580571498,-36.84391103467682],[174.78669738769534,-36.84043884277343],[174.7925262451172,-36.86457824707031],[174.81919860839844,-36.8445816040039],[174.8588018700877,-36.84389965210436],[174.85892371654373,-36.84619909418846],[174.8591688385357,-36.8492526023417],[174.8594931889021,-36.85231210855774],[174.85989233724126,-36.855377177946195],[174.8603618531516,-36.85844737561668],[174.8608973062317,-36.861522266678854],[174.86149426607997,-36.86460141624236],[174.86214830229483,-36.86768438941682],[174.86285498447467,-36.870770751311866],[174.86360988221813,-36.87386006703716],[174.86440856512348,-36.87695190170232],[174.86524660278926,-36.88004582041696],[174.86611956481394,-36.883141388290774],[174.867023020796,-36.88623817043336],[174.86795254033376,-36.88933573195435],[174.8689036930258,-36.89243363796339],[174.86987204847057,-36.895531453570136],[174.87085317626645,-36.898628743884196],[174.87110537946802,-36.89941795889129],[174.86253356933594,-36.90960693359374],[174.87279175497412,-36.90468207614482],[174.8728360273055,-36.90482000907284],[174.87382888974554,-36.907913114166696],[174.87481680293058,-36.911003954406425],[174.87579533645905,-36.91409209490167],[174.8767600599294,-36.917177100762046],[174.87770654294007,-36.92025853709722],[174.87863035508954,-36.9233359690168],[174.87952706597628,-36.92640896163044],[174.8803922451987,-36.929477080047775],[174.88122146235523,-36.93253988937843],[174.88201028704444,-36.93559695473206],[174.8827542888647,-36.9386478412183],[174.88344903741444,-36.94169211394676],[174.8840901022922,-36.9447293380271],[174.88467305309635,-36.94775907856896],[174.8851934594254,-36.95078090068196],[174.8856468908778,-36.95379436947576],[174.88602891705196,-36.95679905005996],[174.88633510754636,-36.95979450754423],[174.88656103195953,-36.96278030703821],[174.88670225988977,-36.96575601365151],[174.8867543609357,-36.968721192493774],[174.88671290469563,-36.97167540867465],[174.88657346076815,-36.974618227303765],[174.8863315987516,-36.97754921349077],[174.8859828882445,-36.98046793234528],[174.8855228988453,-36.98337394897694],[174.88494720015242,-36.98626682849539],[174.8842513617643,-36.98914613601028],[174.88343095327951,-36.992011436631216],[174.88248154429638,-36.99486229546787],[174.8813987044134,-36.99769827762984],[174.88017800322905,-37.00051894822679],[174.8788150103418,-37.003323872368355],[174.87730529535006,-37.006112615164156],[174.87564442785225,-37.00888474172385],[174.8738279774469,-37.01163981715705],[174.87185151373245,-37.014377406573416],[174.86971060630736,-37.017097075082575],[174.86740082477002,-37.019798387794154],[174.864917738719,-37.022480909817816],[174.86225691775263,-37.025144206263164],[174.860975278632,-37.025597854581896],[174.86085510253906,-37.02044677734374]]]}},{"type":"Feature","properties":{"name":"Manukau","colour":"#f28a2f","suburbs":"Manukau, Papakura and Botany","label_lat":-37.0,"label_lng":174.985},"geometry":{"type":"MultiPolygon","coordinates":[[[[174.85418701171875,-37.05794525146484],[174.87750244140625,-37.08130645751953],[174.9320526123047,-37.05583190917968],[174.91082763671875,-37.04544067382812],[174.87496948242188,-37.05625152587889],[174.89291381835938,-37.04336547851562],[174.8766632080078,-37.03961181640625],[174.86163330078125,-37.053802490234375],[174.860975278632,-37.025597854581896],[174.86225691775263,-37.025144206263164],[174.864917738719,-37.022480909817816],[174.86740082477002,-37.019798387794154],[174.86971060630736,-37.017097075082575],[174.87185151373245,-37.014377406573416],[174.8738279774469,-37.01163981715705],[174.87564442785225,-37.00888474172385],[174.87730529535006,-37.006112615164156],[174.8788150103418,-37.003323872368355],[174.88017800322905,-37.00051894822679],[174.8813987044134,-36.99769827762984],[174.88248154429638,-36.99486229546787],[174.88343095327951,-36.992011436631216],[174.8842513617643,-36.98914613601028],[174.88494720015242,-36.98626682849539],[174.8855228988453,-36.98337394897694],[174.8859828882445,-36.98046793234528],[174.8863315987516,-36.97754921349077],[174.88657346076815,-36.974618227303765],[174.88671290469563,-36.97167540867465],[174.8867543609357,-36.968721192493774],[174.88670225988977,-36.96575601365151],[174.88656103195953,-36.96278030703821],[174.88633510754636,-36.95979450754423],[174.88602891705196,-36.95679905005996],[174.8856468908778,-36.95379436947576],[174.8851934594254,-36.95078090068196],[174.88467305309635,-36.94775907856896],[174.8840901022922,-36.9447293380271],[174.88344903741444,-36.94169211394676],[174.8827542888647,-36.9386478412183],[174.88201028704444,-36.93559695473206],[174.88122146235523,-36.93253988937843],[174.8803922451987,-36.929477080047775],[174.87952706597628,-36.92640896163044],[174.87863035508954,-36.9233359690168],[174.87770654294007,-36.92025853709722],[174.8767600599294,-36.917177100762046],[174.87579533645905,-36.91409209490167],[174.87481680293058,-36.911003954406425],[174.87382888974554,-36.907913114166696],[174.8728360273055,-36.90482000907284],[174.87279175497412,-36.904682076144816],[174.89625549316406,-36.89341735839844],[174.9033660888672,-36.847084045410156],[174.92522459892905,-36.8682358553963],[174.95291137695312,-36.89500427246094],[174.96092224121094,-36.92958068847656],[174.9750213623047,-36.907112121582024],[174.998779296875,-36.920059204101555],[174.98583984375,-36.880447387695305],[175.03921508789062,-36.87708282470702],[175.06744384765625,-36.90374755859375],[175.10044860839844,-36.90252685546874],[175.07794189453125,-36.917495727539055],[175.0783386230469,-36.95877838134765],[175.09584045410156,-36.941253662109375],[175.1114142027871,-36.95005029024519],[175.08,-37.06000000000001],[175.02160994000155,-37.176780119996906],[175.02011262841683,-37.17640501330872],[175.01612526150825,-37.17536771616075],[175.0121489298577,-37.174294480541064],[175.0081842171237,-37.17318513112609],[175.00423170696484,-37.17203949259223],[175.00029198303974,-37.17085738961589],[174.9963656290069,-37.16963864687349],[174.99245322852497,-37.16838308904143],[174.98855536525252,-37.167090540796124],[174.9846726228481,-37.165760826813994],[174.98080558497037,-37.16439377177144],[174.97695483527784,-37.162989200344875],[174.9731209574291,-37.161546937210716],[174.96930453508276,-37.16006680704537],[174.96550615189742,-37.158548634525246],[174.96172639153158,-37.15699224432676],[174.95796583764394,-37.15539746112632],[174.954225073893,-37.15376410960034],[174.95050468393734,-37.152092014425214],[174.94680525143565,-37.1503810002774],[174.94312736004636,-37.14863089183326],[174.93947159342815,-37.14684151376922],[174.93583853523964,-37.14501269076171],[174.9322287691393,-37.143144247487115],[174.92864287878575,-37.141236008621846],[174.92508144783758,-37.13928779884233],[174.92154505995344,-37.13729944282499],[174.9180342987918,-37.135270765246204],[174.9145497480113,-37.1332015907824],[174.9110919912706,-37.131091744109995],[174.9076616122282,-37.1289410499054],[174.9042591945426,-37.12674933284501],[174.90088532187252,-37.12451641760524],[174.89754057787653,-37.122242128862524],[174.89422554621314,-37.11992629129324],[174.89094081054097,-37.117568729573826],[174.8876869545186,-37.11516926838068],[174.8844645618047,-37.112727732390226],[174.88127421605768,-37.11024394627886],[174.87811650093627,-37.107717734722996],[174.87499200009898,-37.10514892239905],[174.87190129720443,-37.102537333983435],[174.86884497591112,-37.099882794152535],[174.86582361987774,-37.09718512758282],[174.86283781276285,-37.09444415895064],[174.85988813822505,-37.091659712932454],[174.8569751799228,-37.08883161420462],[174.85409952151485,-37.08595968744362],[174.85126174665967,-37.0830437573258],[174.8484624390159,-37.08008364852759],[174.84570218224206,-37.07707918572543],[174.84298155999676,-37.07403019359569],[174.84037729349245,-37.071024374052676],[174.85418701171875,-37.05794525146484]]],[[[174.8937530517578,-36.87249755859375],[174.87110537946802,-36.89941795889129],[174.87085317626645,-36.898628743884196],[174.86987204847057,-36.895531453570136],[174.8689036930258,-36.89243363796339],[174.86795254033376,-36.88933573195435],[174.867023020796,-36.88623817043336],[174.86611956481394,-36.883141388290774],[174.86524660278926,-36.88004582041696],[174.86440856512348,-36.87695190170232],[174.86360988221813,-36.87386006703716],[174.86285498447467,-36.870770751311866],[174.86214830229483,-36.86768438941682],[174.86149426607997,-36.86460141624236],[174.8608973062317,-36.861522266678854],[174.8603618531516,-36.85844737561668],[174.85989233724126,-36.855377177946195],[174.8594931889021,-36.85231210855774],[174.8591688385357,-36.8492526023417],[174.85892371654373,-36.84619909418846],[174.8588018700877,-36.84389965210436],[174.86749267578125,-36.84375],[174.8937530517578,-36.87249755859375]]]]}},{"type":"Feature","properties":{"name":"South Auckland","colour":"#2ca9a4","suburbs":"Manurewa, Papatoetoe and Pukekohe","label_lat":-37.19,"label_lng":174.76},"geometry":{"type":"Polygon","coordinates":[[[174.67041015625,-37.108413696289055],[174.6521453857422,-37.12168884277344],[174.6746063232422,-37.12916564941405],[174.65957641601565,-37.14585876464843],[174.6925048828125,-37.14794921875],[174.67752075195315,-37.162078857421875],[174.7020263671875,-37.153335571289055],[174.688720703125,-37.189193725585945],[174.7046356201172,-37.18583679199217],[174.69210815429688,-37.202529907226555],[174.70619201660156,-37.19749450683594],[174.7050018310547,-37.21961212158204],[174.73043823242188,-37.19000244140626],[174.7054443359375,-37.15919494628906],[174.73208618164062,-37.154998779296875],[174.6925048828125,-37.13793945312501],[174.74002075195312,-37.12960815429687],[174.7816925048828,-37.089553833007805],[174.79539489746094,-37.0933609008789],[174.7821044921875,-37.105026245117195],[174.79168701171875,-37.11711120605469],[174.81978525586388,-37.09052700112039],[174.84037729349245,-37.071024374052676],[174.84298155999676,-37.07403019359569],[174.84570218224206,-37.07707918572543],[174.8484624390159,-37.08008364852759],[174.85126174665967,-37.0830437573258],[174.85409952151485,-37.08595968744362],[174.8569751799228,-37.08883161420462],[174.85988813822505,-37.091659712932454],[174.86283781276285,-37.09444415895064],[174.86582361987774,-37.09718512758282],[174.86884497591112,-37.099882794152535],[174.87190129720443,-37.102537333983435],[174.87499200009898,-37.10514892239905],[174.87811650093627,-37.107717734722996],[174.88127421605768,-37.11024394627886],[174.8844645618047,-37.112727732390226],[174.8876869545186,-37.11516926838068],[174.89094081054097,-37.117568729573826],[174.89422554621314,-37.11992629129324],[174.89754057787653,-37.122242128862524],[174.90088532187252,-37.12451641760524],[174.9042591945426,-37.12674933284501],[174.9076616122282,-37.1289410499054],[174.9110919912706,-37.131091744109995],[174.9145497480113,-37.1332015907824],[174.9180342987918,-37.135270765246204],[174.92154505995344,-37.13729944282499],[174.92508144783758,-37.13928779884233],[174.92864287878575,-37.141236008621846],[174.9322287691393,-37.143144247487115],[174.93583853523964,-37.14501269076171],[174.93947159342815,-37.14684151376922],[174.94312736004636,-37.14863089183326],[174.94680525143565,-37.1503810002774],[174.95050468393734,-37.152092014425214],[174.954225073893,-37.15376410960034],[174.95796583764394,-37.15539746112632],[174.96172639153158,-37.15699224432676],[174.96550615189742,-37.158548634525246],[174.96930453508276,-37.16006680704537],[174.9731209574291,-37.161546937210716],[174.97695483527784,-37.162989200344875],[174.98080558497037,-37.16439377177144],[174.9846726228481,-37.165760826813994],[174.98855536525252,-37.167090540796124],[174.99245322852497,-37.16838308904143],[174.9963656290069,-37.16963864687349],[175.00029198303974,-37.17085738961589],[175.00423170696484,-37.17203949259223],[175.0081842171237,-37.17318513112609],[175.0121489298577,-37.174294480541064],[175.01612526150825,-37.17536771616075],[175.02011262841683,-37.17640501330872],[175.02160994000155,-37.176780119996906],[175.08,-37.06000000000001],[175.02,-37.18],[174.95770358958922,-37.20673021669496],[174.88,-37.24],[174.79,-37.339999999999996],[174.68284473376337,-37.34000000000001],[174.53875732421875,-37.05586242675781],[174.54287001167614,-37.05396106688196],[174.5666961669922,-37.0429458618164],[174.57886237538432,-37.04316146804821],[174.6592559814453,-37.044586181640625],[174.6687469482422,-37.07086181640624],[174.64288330078125,-37.087524414062486],[174.67041015625,-37.108413696289055]]]}}]}
